{"fetched_at":"2026-07-23T07:06:02.663Z","source":"https://celestrak.org/NORAD/elements/gp.php?NAME=SPACEMOBILE&FORMAT=JSON","constellation":"ast-spacemobile","records":[{"OBJECT_NAME":"SPACEMOBILE-003","OBJECT_ID":"2024-163A","EPOCH":"2026-07-22T20:05:24.333216","CLASSIFICATION_TYPE":"U","MEAN_MOTION":15.20672017,"ECCENTRICITY":0.00035496,"INCLINATION":52.9684,"RA_OF_ASC_NODE":145.5029,"ARG_OF_PERICENTER":221.4656,"MEAN_ANOMALY":138.6069,"EPHEMERIS_TYPE":0,"NORAD_CAT_ID":61045,"ELEMENT_SET_NO":999,"REV_AT_EPOCH":10319,"BSTAR":0.00010549424,"MEAN_MOTION_DOT":0.00002021,"MEAN_MOTION_DDOT":0},{"OBJECT_NAME":"SPACEMOBILE-005","OBJECT_ID":"2024-163B","EPOCH":"2026-07-22T21:16:16.497984","CLASSIFICATION_TYPE":"U","MEAN_MOTION":15.20620713,"ECCENTRICITY":0.0008389,"INCLINATION":52.974,"RA_OF_ASC_NODE":145.2334,"ARG_OF_PERICENTER":216.1321,"MEAN_ANOMALY":143.9107,"EPHEMERIS_TYPE":0,"NORAD_CAT_ID":61046,"ELEMENT_SET_NO":999,"REV_AT_EPOCH":10319,"BSTAR":0.00024525843,"MEAN_MOTION_DOT":0.00005127,"MEAN_MOTION_DDOT":0},{"OBJECT_NAME":"SPACEMOBILE-001","OBJECT_ID":"2024-163C","EPOCH":"2026-07-22T13:20:36.041280","CLASSIFICATION_TYPE":"U","MEAN_MOTION":15.20677464,"ECCENTRICITY":0.00068236,"INCLINATION":52.9703,"RA_OF_ASC_NODE":146.4575,"ARG_OF_PERICENTER":216.1814,"MEAN_ANOMALY":143.872,"EPHEMERIS_TYPE":0,"NORAD_CAT_ID":61047,"ELEMENT_SET_NO":999,"REV_AT_EPOCH":10314,"BSTAR":0.000034042584,"MEAN_MOTION_DOT":0.0000043,"MEAN_MOTION_DDOT":0},{"OBJECT_NAME":"SPACEMOBILE-002","OBJECT_ID":"2024-163D","EPOCH":"2026-07-22T03:30:09.144288","CLASSIFICATION_TYPE":"U","MEAN_MOTION":15.20474992,"ECCENTRICITY":0.00044252,"INCLINATION":52.976,"RA_OF_ASC_NODE":148.3864,"ARG_OF_PERICENTER":214.1604,"MEAN_ANOMALY":145.9106,"EPHEMERIS_TYPE":0,"NORAD_CAT_ID":61048,"ELEMENT_SET_NO":999,"REV_AT_EPOCH":10308,"BSTAR":0.0010065253,"MEAN_MOTION_DOT":0.00022005,"MEAN_MOTION_DDOT":0},{"OBJECT_NAME":"SPACEMOBILE-004","OBJECT_ID":"2024-163E","EPOCH":"2026-07-22T03:04:24.159360","CLASSIFICATION_TYPE":"U","MEAN_MOTION":15.20619582,"ECCENTRICITY":0.00053681,"INCLINATION":52.9727,"RA_OF_ASC_NODE":148.2451,"ARG_OF_PERICENTER":248.8575,"MEAN_ANOMALY":111.1846,"EPHEMERIS_TYPE":0,"NORAD_CAT_ID":61049,"ELEMENT_SET_NO":999,"REV_AT_EPOCH":10308,"BSTAR":0.0009613958,"MEAN_MOTION_DOT":0.00021093,"MEAN_MOTION_DDOT":0},{"OBJECT_NAME":"SPACEMOBILE-001 DEB","OBJECT_ID":"2024-163F","EPOCH":"2026-07-22T19:04:26.368896","CLASSIFICATION_TYPE":"U","MEAN_MOTION":15.35492312,"ECCENTRICITY":0.00057733,"INCLINATION":52.9937,"RA_OF_ASC_NODE":111.8053,"ARG_OF_PERICENTER":282.2016,"MEAN_ANOMALY":77.8338,"EPHEMERIS_TYPE":0,"NORAD_CAT_ID":62369,"ELEMENT_SET_NO":999,"REV_AT_EPOCH":9197,"BSTAR":0.00027361086,"MEAN_MOTION_DOT":0.00009206,"MEAN_MOTION_DDOT":0},{"OBJECT_NAME":"SPACEMOBILE-002 DEB","OBJECT_ID":"2024-163G","EPOCH":"2026-07-22T17:31:11.241408","CLASSIFICATION_TYPE":"U","MEAN_MOTION":15.44037119,"ECCENTRICITY":0.00049777,"INCLINATION":52.9415,"RA_OF_ASC_NODE":95.7315,"ARG_OF_PERICENTER":313.2117,"MEAN_ANOMALY":46.8471,"EPHEMERIS_TYPE":0,"NORAD_CAT_ID":62370,"ELEMENT_SET_NO":999,"REV_AT_EPOCH":10385,"BSTAR":0.0004580643,"MEAN_MOTION_DOT":0.0002088,"MEAN_MOTION_DDOT":0},{"OBJECT_NAME":"SPACEMOBILE-003 DEB","OBJECT_ID":"2024-163H","EPOCH":"2026-07-22T18:35:53.066400","CLASSIFICATION_TYPE":"U","MEAN_MOTION":15.41782914,"ECCENTRICITY":0.00054727,"INCLINATION":52.9703,"RA_OF_ASC_NODE":102.5658,"ARG_OF_PERICENTER":264.9797,"MEAN_ANOMALY":95.0582,"EPHEMERIS_TYPE":0,"NORAD_CAT_ID":62371,"ELEMENT_SET_NO":999,"REV_AT_EPOCH":9737,"BSTAR":0.00048634854,"MEAN_MOTION_DOT":0.00020555,"MEAN_MOTION_DDOT":0},{"OBJECT_NAME":"SPACEMOBILE-004 DEB","OBJECT_ID":"2024-163J","EPOCH":"2026-07-21T18:14:09.648096","CLASSIFICATION_TYPE":"U","MEAN_MOTION":15.40890326,"ECCENTRICITY":0.00028983,"INCLINATION":52.9839,"RA_OF_ASC_NODE":107.089,"ARG_OF_PERICENTER":291.5897,"MEAN_ANOMALY":68.4797,"EPHEMERIS_TYPE":0,"NORAD_CAT_ID":62372,"ELEMENT_SET_NO":999,"REV_AT_EPOCH":10028,"BSTAR":0.00034727546,"MEAN_MOTION_DOT":0.00014109,"MEAN_MOTION_DDOT":0},{"OBJECT_NAME":"SPACEMOBILE-005 DEB","OBJECT_ID":"2024-163K","EPOCH":"2026-07-22T18:07:53.103072","CLASSIFICATION_TYPE":"U","MEAN_MOTION":15.34767982,"ECCENTRICITY":0.00054694,"INCLINATION":52.9745,"RA_OF_ASC_NODE":116.9127,"ARG_OF_PERICENTER":258.6184,"MEAN_ANOMALY":101.4202,"EPHEMERIS_TYPE":0,"NORAD_CAT_ID":62373,"ELEMENT_SET_NO":999,"REV_AT_EPOCH":10358,"BSTAR":0.00032962108,"MEAN_MOTION_DOT":0.0001091,"MEAN_MOTION_DDOT":0},{"OBJECT_NAME":"SPACEMOBILE-006","OBJECT_ID":"2025-309A","EPOCH":"2026-07-22T21:51:20.134944","CLASSIFICATION_TYPE":"U","MEAN_MOTION":15.18689795,"ECCENTRICITY":0.0009487,"INCLINATION":52.9955,"RA_OF_ASC_NODE":167.9873,"ARG_OF_PERICENTER":241.7813,"MEAN_ANOMALY":118.2224,"EPHEMERIS_TYPE":0,"NORAD_CAT_ID":67232,"ELEMENT_SET_NO":999,"REV_AT_EPOCH":3202,"BSTAR":0.00015275662,"MEAN_MOTION_DOT":0.0000289,"MEAN_MOTION_DDOT":0},{"OBJECT_NAME":"SPACEMOBILE-008","OBJECT_ID":"2026-139A","EPOCH":"2026-07-22T00:34:01.573248","CLASSIFICATION_TYPE":"U","MEAN_MOTION":15.12810954,"ECCENTRICITY":0.00052889,"INCLINATION":52.9952,"RA_OF_ASC_NODE":104.4056,"ARG_OF_PERICENTER":72.6023,"MEAN_ANOMALY":287.5546,"EPHEMERIS_TYPE":0,"NORAD_CAT_ID":69589,"ELEMENT_SET_NO":999,"REV_AT_EPOCH":525,"BSTAR":0.000038732129,"MEAN_MOTION_DOT":0.00000387,"MEAN_MOTION_DDOT":0},{"OBJECT_NAME":"SPACEMOBILE-009","OBJECT_ID":"2026-139B","EPOCH":"2026-07-22T00:37:31.894176","CLASSIFICATION_TYPE":"U","MEAN_MOTION":15.12712567,"ECCENTRICITY":0.0005584,"INCLINATION":52.9945,"RA_OF_ASC_NODE":104.4147,"ARG_OF_PERICENTER":69.1876,"MEAN_ANOMALY":290.9713,"EPHEMERIS_TYPE":0,"NORAD_CAT_ID":69590,"ELEMENT_SET_NO":999,"REV_AT_EPOCH":525,"BSTAR":0.000096208504,"MEAN_MOTION_DOT":0.00001404,"MEAN_MOTION_DDOT":0},{"OBJECT_NAME":"SPACEMOBILE-010","OBJECT_ID":"2026-139C","EPOCH":"2026-07-22T16:34:34.841856","CLASSIFICATION_TYPE":"U","MEAN_MOTION":15.12550693,"ECCENTRICITY":0.00056048,"INCLINATION":52.995,"RA_OF_ASC_NODE":101.4429,"ARG_OF_PERICENTER":63.1942,"MEAN_ANOMALY":296.9621,"EPHEMERIS_TYPE":0,"NORAD_CAT_ID":69591,"ELEMENT_SET_NO":999,"REV_AT_EPOCH":536,"BSTAR":0.000083655383,"MEAN_MOTION_DOT":0.00001175,"MEAN_MOTION_DDOT":0}]}
